{
  "type": "FeatureCollection",
  "features": [
    {
      "type": "Feature",
      "properties": {
        "norad_id": 67039,
        "name": "STARLINK-35705",
        "group": "last-30-days",
        "lat": 27.377021599974,
        "lon": 133.94507456728817,
        "alt_km": 363.1706914850947,
        "timestamp": "2025-12-26T03:50:10.810350+00:00",
        "meta_object_name": "STARLINK-35705",
        "meta_object_id": "2025-294K",
        "meta_epoch": "2025-12-25T20:00:01.999008",
        "meta_mean_motion": 15.68546104,
        "meta_eccentricity": 0.0001807,
        "meta_inclination": 42.9997,
        "meta_ra_of_asc_node": 102.1445,
        "meta_arg_of_pericenter": 283.3811,
        "meta_mean_anomaly": 74.03,
        "meta_ephemeris_type": 0,
        "meta_classification_type": "U",
        "meta_norad_cat_id": 67039,
        "meta_element_set_no": 999,
        "meta_rev_at_epoch": 221,
        "meta_bstar": -0.018551,
        "meta_mean_motion_dot": -0.01917395,
        "meta_mean_motion_ddot": 0,
        "tle_line1": "1 67039U 25294K   25359.83335647 -.01917395  00000+0 -18551-1 0  9997",
        "tle_line2": "2 67039  42.9997 102.1445 0001807 283.3811  74.0300 15.68546104  2215"
      },
      "geometry": {
        "type": "Point",
        "coordinates": [
          133.94507456728817,
          27.377021599974
        ]
      }
    },
    {
      "type": "Feature",
      "properties": {
        "norad_id": 67040,
        "name": "STARLINK-35786",
        "group": "last-30-days",
        "lat": 26.218733974970817,
        "lon": 132.0936432466799,
        "alt_km": 363.26360270724854,
        "timestamp": "2025-12-26T03:50:10.810360+00:00",
        "meta_object_name": "STARLINK-35786",
        "meta_object_id": "2025-294L",
        "meta_epoch": "2025-12-25T20:00:01.999008",
        "meta_mean_motion": 15.68558191,
        "meta_eccentricity": 0.0001637,
        "meta_inclination": 42.9996,
        "meta_ra_of_asc_node": 102.1499,
        "meta_arg_of_pericenter": 282.5414,
        "meta_mean_anomaly": 72.8407,
        "meta_ephemeris_type": 0,
        "meta_classification_type": "U",
        "meta_norad_cat_id": 67040,
        "meta_element_set_no": 999,
        "meta_rev_at_epoch": 221,
        "meta_bstar": -0.018625,
        "meta_mean_motion_dot": -0.01924858,
        "meta_mean_motion_ddot": 0,
        "tle_line1": "1 67040U 25294L   25359.83335647 -.01924858  00000+0 -18625-1 0  9993",
        "tle_line2": "2 67040  42.9996 102.1499 0001637 282.5414  72.8407 15.68558191  2219"
      },
      "geometry": {
        "type": "Point",
        "coordinates": [
          132.0936432466799,
          26.218733974970817
        ]
      }
    },
    {
      "type": "Feature",
      "properties": {
        "norad_id": 67041,
        "name": "STARLINK-35765",
        "group": "last-30-days",
        "lat": 28.48912674284913,
        "lon": 135.7999527083214,
        "alt_km": 363.1710100744813,
        "timestamp": "2025-12-26T03:50:10.810370+00:00",
        "meta_object_name": "STARLINK-35765",
        "meta_object_id": "2025-294M",
        "meta_epoch": "2025-12-25T20:00:01.999008",
        "meta_mean_motion": 15.68541248,
        "meta_eccentricity": 0.000177,
        "meta_inclination": 42.9996,
        "meta_ra_of_asc_node": 102.1395,
        "meta_arg_of_pericenter": 277.6989,
        "meta_mean_anomaly": 81.7024,
        "meta_ephemeris_type": 0,
        "meta_classification_type": "U",
        "meta_norad_cat_id": 67041,
        "meta_element_set_no": 999,
        "meta_rev_at_epoch": 221,
        "meta_bstar": -0.018565,
        "meta_mean_motion_dot": -0.01918326,
        "meta_mean_motion_ddot": 0,
        "tle_line1": "1 67041U 25294M   25359.83335647 -.01918326  00000+0 -18565-1 0  9990",
        "tle_line2": "2 67041  42.9996 102.1395 0001770 277.6989  81.7024 15.68541248  2214"
      },
      "geometry": {
        "type": "Point",
        "coordinates": [
          135.7999527083214,
          28.48912674284913
        ]
      }
    },
    {
      "type": "Feature",
      "properties": {
        "norad_id": 67042,
        "name": "STARLINK-35773",
        "group": "last-30-days",
        "lat": 29.624918402805356,
        "lon": 137.7819913142045,
        "alt_km": 362.937687868206,
        "timestamp": "2025-12-26T03:50:10.810382+00:00",
        "meta_object_name": "STARLINK-35773",
        "meta_object_id": "2025-294N",
        "meta_epoch": "2025-12-25T20:00:01.999008",
        "meta_mean_motion": 15.6852577,
        "meta_eccentricity": 0.0001864,
        "meta_inclination": 42.9997,
        "meta_ra_of_asc_node": 102.1341,
        "meta_arg_of_pericenter": 284.3851,
        "meta_mean_anomaly": 77.1027,
        "meta_ephemeris_type": 0,
        "meta_classification_type": "U",
        "meta_norad_cat_id": 67042,
        "meta_element_set_no": 999,
        "meta_rev_at_epoch": 240,
        "meta_bstar": -0.018507,
        "meta_mean_motion_dot": -0.01911937,
        "meta_mean_motion_ddot": 0,
        "tle_line1": "1 67042U 25294N   25359.83335647 -.01911937  00000+0 -18507-1 0  9998",
        "tle_line2": "2 67042  42.9997 102.1341 0001864 284.3851  77.1027 15.68525770  2409"
      },
      "geometry": {
        "type": "Point",
        "coordinates": [
          137.7819913142045,
          29.624918402805356
        ]
      }
    },
    {
      "type": "Feature",
      "properties": {
        "norad_id": 67043,
        "name": "STARLINK-35901",
        "group": "last-30-days",
        "lat": 30.72427551039458,
        "lon": 139.79800376949012,
        "alt_km": 362.8200636970032,
        "timestamp": "2025-12-26T03:50:10.810395+00:00",
        "meta_object_name": "STARLINK-35901",
        "meta_object_id": "2025-294P",
        "meta_epoch": "2025-12-25T20:00:01.999008",
        "meta_mean_motion": 15.6852249,
        "meta_eccentricity": 0.0001792,
        "meta_inclination": 42.9995,
        "meta_ra_of_asc_node": 102.1291,
        "meta_arg_of_pericenter": 283.7658,
        "meta_mean_anomaly": 79.7927,
        "meta_ephemeris_type": 0,
        "meta_classification_type": "U",
        "meta_norad_cat_id": 67043,
        "meta_element_set_no": 999,
        "meta_rev_at_epoch": 240,
        "meta_bstar": -0.018595,
        "meta_mean_motion_dot": -0.01919769,
        "meta_mean_motion_ddot": 0,
        "tle_line1": "1 67043U 25294P   25359.83335647 -.01919769  00000+0 -18595-1 0  9997",
        "tle_line2": "2 67043  42.9995 102.1291 0001792 283.7658  79.7927 15.68522490  2403"
      },
      "geometry": {
        "type": "Point",
        "coordinates": [
          139.79800376949012,
          30.72427551039458
        ]
      }
    },
    {
      "type": "Feature",
      "properties": {
        "norad_id": 67044,
        "name": "STARLINK-35884",
        "group": "last-30-days",
        "lat": 31.7764294696591,
        "lon": 141.82933405818866,
        "alt_km": 362.69099886313415,
        "timestamp": "2025-12-26T03:50:10.810407+00:00",
        "meta_object_name": "STARLINK-35884",
        "meta_object_id": "2025-294Q",
        "meta_epoch": "2025-12-25T20:00:01.999008",
        "meta_mean_motion": 15.68516808,
        "meta_eccentricity": 0.0001801,
        "meta_inclination": 42.9995,
        "meta_ra_of_asc_node": 102.124,
        "meta_arg_of_pericenter": 284.9529,
        "meta_mean_anomaly": 80.6455,
        "meta_ephemeris_type": 0,
        "meta_classification_type": "U",
        "meta_norad_cat_id": 67044,
        "meta_element_set_no": 999,
        "meta_rev_at_epoch": 240,
        "meta_bstar": -0.01863,
        "meta_mean_motion_dot": -0.01922502,
        "meta_mean_motion_ddot": 0,
        "tle_line1": "1 67044U 25294Q   25359.83335647 -.01922502  00000+0 -18630-1 0  9997",
        "tle_line2": "2 67044  42.9995 102.1240 0001801 284.9529  80.6455 15.68516808  2402"
      },
      "geometry": {
        "type": "Point",
        "coordinates": [
          141.82933405818866,
          31.7764294696591
        ]
      }
    },
    {
      "type": "Feature",
      "properties": {
        "norad_id": 67045,
        "name": "STARLINK-35891",
        "group": "last-30-days",
        "lat": 32.88958682235403,
        "lon": 144.1051452178242,
        "alt_km": 362.5739285824093,
        "timestamp": "2025-12-26T03:50:10.810419+00:00",
        "meta_object_name": "STARLINK-35891",
        "meta_object_id": "2025-294R",
        "meta_epoch": "2025-12-25T20:00:01.999008",
        "meta_mean_motion": 15.68499728,
        "meta_eccentricity": 0.0001698,
        "meta_inclination": 42.9992,
        "meta_ra_of_asc_node": 102.1182,
        "meta_arg_of_pericenter": 285.4782,
        "meta_mean_anomaly": 82.3695,
        "meta_ephemeris_type": 0,
        "meta_classification_type": "U",
        "meta_norad_cat_id": 67045,
        "meta_element_set_no": 999,
        "meta_rev_at_epoch": 232,
        "meta_bstar": -0.018746,
        "meta_mean_motion_dot": -0.01931805,
        "meta_mean_motion_ddot": 0,
        "tle_line1": "1 67045U 25294R   25359.83335647 -.01931805  00000+0 -18746-1 0  9992",
        "tle_line2": "2 67045  42.9992 102.1182 0001698 285.4782  82.3695 15.68499728  2323"
      },
      "geometry": {
        "type": "Point",
        "coordinates": [
          144.1051452178242,
          32.88958682235403
        ]
      }
    }
  ]
}